{"hasZ":true,"type":"FeatureCollection","features":[{"type":"Feature","id":1,"geometry":{"type":"Polygon","coordinates":[[[-89.619799029651475,20.960312640005363,13.806899999995949],[-89.61979640582733,20.960321643956849,13.806899999995949],[-89.619793008396471,20.960333304284184,14.200200000006589],[-89.619876613869579,20.96035797160566,14.197499999994761],[-89.619940645023036,20.960376864497313,14.044899999993504],[-89.620041738968041,20.960406691741333,14.180200000002515],[-89.620055938190291,20.960335131096947,13.919500000003609],[-89.620059720868781,20.960316070406527,13.649600000004284],[-89.620060616791989,20.960311553157176,13.585600000005797],[-89.620064158197849,20.960293705108189,13.33289999999397],[-89.62010287503486,20.960305128672676,12.302299999995739],[-89.620119598244997,20.960310062076829,11.857099999993807],[-89.620137624816692,20.960315380822511,11.377299999992829],[-89.620138964822218,20.960310533519976,11.456999999994878],[-89.620147462581457,20.960279806681328,11.962499999994179],[-89.620157152030814,20.960244767508776,14.310599999997066],[-89.620158278657982,20.960240692725247,12.605899999995017],[-89.620165565624347,20.960214340811028,13.039399999994203],[-89.620169416670549,20.960200417252906,13.268500000005588],[-89.620170499011621,20.960196503859663,13.33289999999397],[-89.620181198448975,20.960157812429902,14.3237999999983],[-89.620183936384166,20.960147911984279,14.57730000000447],[-89.619994470603672,20.960105600950829,12.097500000003492],[-89.619985850759264,20.960103675866264,12.043999999994412],[-89.619979978105206,20.96010236401872,12.007599999997183],[-89.619974199054781,20.96010107330326,12.043999999994412],[-89.619975871509695,20.960092799044524,12.043999999994412],[-89.619978968671958,20.960077477713792,12.043999999994412],[-89.619980324262372,20.960070766666181,12.043999999994412],[-89.619988843925611,20.96002860926847,12.043999999994412],[-89.619992078233039,20.960012608682742,12.043999999994412],[-89.619992719791327,20.960009435191271,12.043999999994412],[-89.61999858475312,20.959980411007425,12.266199999998207],[-89.619998658249983,20.959980050538437,12.269000000000233],[-89.620008840574386,20.959929664175185,13.451400000005378],[-89.619940238084709,20.959911702005385,13.530100000003586],[-89.619923892520731,20.959907421861473,13.548899999994319],[-89.619894824309753,20.959899810750972,13.582299999994575],[-89.619894187355584,20.95990275213601,13.451400000005378],[-89.619887840469289,20.959932032014596,13.338300000003073],[-89.619885158136796,20.959944407248841,13.440799999996671],[-89.619879477663986,20.959970616180112,13.657900000005611],[-89.619876441286436,20.959984627425907,13.806899999995949],[-89.619866273343362,20.960031539352503,14.162500000005821],[-89.619853275388436,20.960091508638296,14.873600000006263],[-89.619847673193618,20.96011735612381,14.007199999992736],[-89.619843700812211,20.960135681187666,13.974000000001979],[-89.619843375205321,20.960137184041358,13.971300000004703],[-89.61982472162714,20.960223245405771,13.815499999996973],[-89.619823688781025,20.960228013949493,13.806899999995949],[-89.619821988216273,20.960233848204616,13.806899999995949],[-89.619799029651475,20.960312640005363,13.806899999995949]]]},"properties":{"OBJECTID":1,"CATEGORIA":"USOS_DE_PREDIO","CODIGO":3003,"ELEMENTO":"Escuela","Z":11.3773003,"Shape_Length":170.3074093079901,"Shape_Area":1198.3617696805593}},{"type":"Feature","id":2,"geometry":{"type":"Polygon","coordinates":[[[-89.618805978533899,20.960938860178587,14.433300000004238],[-89.618804409668897,20.96094414617167,14.512400000006892],[-89.618802856196368,20.960949377756435,14.590700000000652],[-89.618797712814001,20.960966702376833,14.850099999996019],[-89.618789112065201,20.960995672884554,15.283800000004703],[-89.618788654450483,20.96099721297772,15.306899999995949],[-89.618783151524426,20.961015748444794,15.584300000002258],[-89.618773898898851,20.961046915703157,15.551699999996345],[-89.618766656367555,20.961071309493079,15.526199999992969],[-89.618760683186352,20.961091432196039,15.505199999999604],[-89.618750271090761,20.961126502289776,15.468500000002678],[-89.618733645195917,20.961182505039677,15.409899999998743],[-89.618733238405511,20.961183872807819,15.408500000005006],[-89.61870741978376,20.961270841457488,15.91370000000461],[-89.618719181606295,20.961274353396444,16.208299999998417],[-89.618919643827667,20.961334210883678,16.149600000004284],[-89.618992007175393,20.961355818246119,16.12840000000142],[-89.619003445333121,20.96135923401858,16.12510000000475],[-89.619014865909449,20.961317556617228,15.5283999999956],[-89.619016828813159,20.961310392030207,15.536900000006426],[-89.619027418864079,20.961271746564872,15.582999999998719],[-89.619070937653291,20.961112938652075,15.772400000001653],[-89.619087746362823,20.961051602573509,15.845600000000559],[-89.61910928610105,20.960972999669089,15.939299999998184],[-89.619124410168084,20.960917808179396,16.005099999994854],[-89.619126381224405,20.960910615477729,15.79649999999674],[-89.619096470487193,20.960903094841907,15.21929999999702],[-89.619078359153789,20.960898541113188,15.13289999999688],[-89.619038847293908,20.960888606624909,14.944300000002841],[-89.61903054561094,20.960886518603758,14.904699999999139],[-89.618952817489159,20.960866974573911,14.533800000004703],[-89.618945866448101,20.960865226933631,14.500599999999395],[-89.618861538673599,20.960844021007492,14.098299999997835],[-89.618836037073962,20.960837610791735,13.976599999994505],[-89.618805978533899,20.960938860178587,14.433300000004238]]]},"properties":{"OBJECTID":2,"CATEGORIA":"USOS_DE_PREDIO","CODIGO":3003,"ELEMENTO":"Escuela","Z":13.9765997,"Shape_Length":164.73156298245843,"Shape_Area":1606.9972529687689}},{"type":"Feature","id":3,"geometry":{"type":"Polygon","coordinates":[[[-89.616581043718767,20.961885659283741,12.369600000005448],[-89.6165713049663,20.96192349615897,12.685500000006869],[-89.616563220032006,20.96195490362739,12.947700000004261],[-89.616561911867223,20.961959986071005,12.990099999995437],[-89.616551275482635,20.962001310045473,13.335099999996601],[-89.616540416664748,20.962043495155633,13.687300000005052],[-89.616517483650853,20.96213259156827,14.431100000001607],[-89.616504710748615,20.962182214064541,14.845300000000861],[-89.616504690990297,20.962182293819929,15.6362999999983],[-89.616499632045532,20.962201946486971,15.010099999999511],[-89.6164988253948,20.962205082781331,15.036300000007031],[-89.616507437224996,20.962207038856054,15.036300000007031],[-89.616493406614126,20.96226155071076,14.481100000004517],[-89.616489465894958,20.962276860587583,14.325200000006589],[-89.616487669727164,20.962283837509265,14.31260000000475],[-89.616477591470712,20.962322990553272,14.24210000000312],[-89.616427642323416,20.962517046179471,13.892800000001444],[-89.616400698258957,20.962621726206116,13.704299999997602],[-89.616375090197167,20.96272121230821,13.525200000003679],[-89.616352772827355,20.962807914795118,13.369000000006054],[-89.616349669418668,20.962819973241963,14.858500000002095],[-89.616393598756432,20.962829373707979,14.858500000002095],[-89.61643084489728,20.962837342828138,14.858500000002095],[-89.616613080463168,20.96287633686212,12.991800000003423],[-89.616647138150753,20.962882364989316,11.929000000003725],[-89.616719973179499,20.962895256114376,11.929000000003725],[-89.616761009603678,20.962902519594081,12.042199999996228],[-89.61678127813768,20.962824139533137,11.894100000004983],[-89.616810835313856,20.962709842665948,11.84320000000298],[-89.616812173582147,20.962704667666578,11.8408999999956],[-89.616813199345671,20.962700700983344,11.839099999997416],[-89.616818519046817,20.962680126996265,11.830000000001746],[-89.616821532445769,20.962668477117994,11.824800000002142],[-89.616871018461666,20.962477110036343,11.739700000005541],[-89.616876517453107,20.962455848021676,11.730200000005425],[-89.616880939302547,20.962438748497885,11.72259999999369],[-89.616890101805197,20.962403316659895,11.70679999999993],[-89.616891688205101,20.962396935235578,11.712199999994482],[-89.616896159083851,20.962378952861368,11.727499999993597],[-89.616897303510001,20.962374348739768,11.731400000004214],[-89.616927767607663,20.962251806531476,11.835399999996298],[-89.616939468942419,20.962204742033581,11.875400000004447],[-89.616987715726779,20.962010669129562,12.321500000005472],[-89.616901843814759,20.961984827209033,12.246799999993527],[-89.616893246957346,20.961982239822323,12.225200000000768],[-89.616894812590331,20.96197764728889,12.225200000000768],[-89.616895648501895,20.961975198525707,12.225200000000768],[-89.616889849081829,20.961973293172736,12.225200000000768],[-89.616845363945103,20.961958675579023,12.225200000000768],[-89.616591703299349,20.961875323928442,12.225200000000768],[-89.616584328103599,20.961872900142485,12.263099999996484],[-89.616581043718767,20.961885659283741,12.369600000005448]]]},"properties":{"OBJECTID":3,"CATEGORIA":"USOS_DE_PREDIO","CODIGO":3003,"ELEMENTO":"Escuela","Z":11.7068005,"Shape_Length":299.43530367389081,"Shape_Area":4619.99022443793}},{"type":"Feature","id":4,"geometry":{"type":"Polygon","coordinates":[[[-89.624250469300137,20.96289195333166,11.787899999995716],[-89.62429660496808,20.962896952401131,11.787899999995716],[-89.624412081525648,20.962910299298517,12.709700000006706],[-89.624405377344061,20.96296316564403,13.577900000003865],[-89.624496460539618,20.962970623281048,14.247600000002421],[-89.624543452856429,20.962975027643584,17.247600000002421],[-89.624543905299035,20.962971873307943,17.267800000001444],[-89.624556689577915,20.962882757414643,17.838799999997718],[-89.624556722185531,20.962882533003338,17.840200000006007],[-89.624562498619724,20.962882950525163,17.857399999993504],[-89.624626178985622,20.962887555547468,18.04649999999674],[-89.624630489679362,20.962844267483518,14.226800000004005],[-89.624631116847624,20.962837963090244,13.670499999992899],[-89.624638201398355,20.962766808894408,13.087799999993877],[-89.624647025381961,20.96267818376699,12.361999999993714],[-89.624650029092209,20.962648012707042,12.114900000000489],[-89.624687602442521,20.962651313480912,12.114900000000489],[-89.624690188338604,20.962625344442358,12.287800000005518],[-89.624701428566098,20.962626331460697,12.584099999992759],[-89.624708066929628,20.962593813856,13.460099999996601],[-89.624708941828558,20.962589531661614,13.575400000001537],[-89.624717645936485,20.962546891883658,14.724000000001979],[-89.624712426543525,20.962545952058051,14.724000000001979],[-89.624712654369603,20.962544356808277,14.721699999994598],[-89.624714592395776,20.962530828310527,14.701799999995274],[-89.624721734315912,20.962480963544468,14.62840000000142],[-89.624724252326189,20.962463383110155,14.602599999998347],[-89.624725255513312,20.9624563741115,15.035000000003492],[-89.624637310932172,20.962446602948052,15.767999999996391],[-89.624636796064379,20.96245009049748,16.571700000000419],[-89.624619981310545,20.962563912916206,16.602799999993294],[-89.624610656324563,20.962627037289725,16.620100000000093],[-89.624587524437061,20.962624032278768,16.521299999993062],[-89.624578029201075,20.96268852710552,16.620100000000093],[-89.624575726145991,20.96268808587298,16.593999999997322],[-89.624452993659673,20.962664609710597,16.521299999993062],[-89.624406322339482,20.962655682463147,14.673999999999069],[-89.624404329843685,20.962655301450411,14.651400000002468],[-89.62439343958026,20.962653218368203,14.528000000005704],[-89.624362347560833,20.962647271634395,14.175600000002305],[-89.624339660361073,20.962642980388779,14.268400000000838],[-89.624335940716819,20.962642276571803,14.283599999995204],[-89.62427455075823,20.962630665177628,14.534599999999045],[-89.624245582512529,20.962625185894122,14.653099999995902],[-89.624144150288345,20.962606001354978,15.067999999999302],[-89.624092112971439,20.962596159003894,15.280799999993178],[-89.62403630489824,20.96258560276533,15.689400000002934],[-89.623996449988184,20.962800930031264,15.099300000001676],[-89.623985624148034,20.962859420560864,14.832500000004075],[-89.624043849958909,20.962867125358734,14.097299999993993],[-89.624047876117828,20.962867657432039,14.057799999995041],[-89.62408630152909,20.962872741901926,13.680900000006659],[-89.624093702090491,20.962873967764775,13.598100000002887],[-89.624202508788628,20.962891992321065,12.380499999999302],[-89.624204545914282,20.962877530548127,11.853700000006938],[-89.624251523858263,20.962883370762118,11.787899999995716],[-89.624250469300137,20.96289195333166,11.787899999995716]]]},"properties":{"OBJECTID":4,"CATEGORIA":"USOS_DE_PREDIO","CODIGO":3003,"ELEMENTO":"Escuela","Z":11.7879,"Shape_Length":266.7080130938927,"Shape_Area":2155.3752752095438}},{"type":"Feature","id":5,"geometry":{"type":"Polygon","coordinates":[[[-89.630016749222179,20.969579738858091,12.204299999997602],[-89.630016765519528,20.969579901120415,12.203200000003562],[-89.630018844317021,20.969600365645604,12.070099999997183],[-89.630021584147912,20.969627348511203,11.894700000004377],[-89.630023414437858,20.969645367426605,15.634600000004866],[-89.630023208601287,20.969646733013576,15.621700000003329],[-89.630008792915845,20.969742027171307,14.721000000005006],[-89.630008030437111,20.969747067848708,14.516600000002654],[-89.630189639632135,20.969771304139655,12.613100000002305],[-89.630269245534507,20.969781927567386,11.812999999994645],[-89.630280897075167,20.969783482028696,11.695900000006077],[-89.630317772926162,20.969788402847495,11.325299999996787],[-89.63031862466454,20.969788516997284,11.316699999995762],[-89.630352767077227,20.969793072831123,15.586999999999534],[-89.630358560126652,20.969789811641622,15.59320000000298],[-89.630445725943218,20.969740728898994,15.685800000006566],[-89.630448539819369,20.969732784559007,15.549799999993411],[-89.630455343677269,20.969713575072234,15.553400000004331],[-89.630458411278738,20.969704914461168,15.554999999993015],[-89.630500912481793,20.969584921427238,15.577699999994365],[-89.630505134178335,20.969573000840029,15.580000000001746],[-89.630532517195391,20.969495690814327,15.594599999996717],[-89.630558977811404,20.96942098532255,15.608699999997043],[-89.630565065361139,20.969403798456828,15.611900000003516],[-89.6305861730077,20.969344205460082,15.623200000001816],[-89.630587933489707,20.969339234237427,15.49649999999383],[-89.630577968588597,20.969336505314921,15.232000000003609],[-89.630544476043539,20.969327334920237,15.201000000000931],[-89.630486296790139,20.969311404173105,15.147299999996903],[-89.630467362822429,20.96930621984994,15.129799999995157],[-89.630454864329806,20.969302790607383,15.118199999997159],[-89.630390176205395,20.969285084207545,15.058399999994435],[-89.630346730380055,20.969273188268833,15.018200000005891],[-89.630327525970912,20.969267929556992,15.114799999995739],[-89.630252504871109,20.969247386989945,14.931100000001607],[-89.63020329088711,20.969233911605304,14.885599999994156],[-89.630202590116298,20.969235942113436,14.886599999997998],[-89.630184614233585,20.969230466689179,14.301800000001094],[-89.630174689391936,20.969227444597994,14.083100000003469],[-89.63015784999169,20.969222315472855,13.711999999999534],[-89.630136447277224,20.96921579598769,13.240399999995134],[-89.630126226718147,20.969212683659812,13.015199999994365],[-89.630083220305465,20.969199584581567,12.067500000004657],[-89.63008113712624,20.969205616220961,12.236600000003818],[-89.630077382561581,20.969216493109414,12.541599999996834],[-89.630024792434838,20.969200474993663,11.998300000006566],[-89.630022887677399,20.969199894976118,11.978600000002189],[-89.629821764126902,20.969146550108803,12.823399999993853],[-89.629804221752792,20.969141896770463,12.897100000001956],[-89.629803083889641,20.969144986755172,13.11359999999695],[-89.629721776475805,20.969365696424273,12.971199999999953],[-89.629715970502403,20.969381456923784,17.020699999993667],[-89.629735724900485,20.96938513173135,16.691699999995762],[-89.629940508656858,20.969423233229136,13.28070000000298],[-89.629970821137121,20.969428873022917,13.017300000006799],[-89.630049632440418,20.969443536478124,12.332500000004075],[-89.630015805949654,20.969535894514067,12.520199999999022],[-89.630012228094415,20.969535229278833,12.493799999996554],[-89.630016749222179,20.969579738858091,12.204299999997602]]]},"properties":{"OBJECTID":5,"CATEGORIA":"USOS_DE_PREDIO","CODIGO":3003,"ELEMENTO":"Escuela","Z":11.3167,"Shape_Length":279.23351133484061,"Shape_Area":3678.84885860133}},{"type":"Feature","id":6,"geometry":{"type":"Polygon","coordinates":[[[-89.622262919687515,20.972073469147322,17.353799999997136],[-89.622265999974061,20.972077182131482,17.353799999997136],[-89.622279971136521,20.972078733019288,17.342799999998533],[-89.622487142253249,20.972101726120695,17.18859999999404],[-89.622487515327478,20.972098758095061,17.05109999999695],[-89.622492967730821,20.972055421766257,17.020300000003772],[-89.622498311173288,20.972056014828468,17.017900000006193],[-89.622542354117698,20.972060902790826,16.998399999996764],[-89.622547122792398,20.972023004076391,17.061900000000605],[-89.622595009574937,20.972028318576825,17.057600000000093],[-89.622628515875633,20.972032037045377,17.05460000000312],[-89.622642139612537,20.971946828487638,16.969899999996414],[-89.62264765936132,20.971912309346241,16.935599999997066],[-89.622597155389258,20.971904257962493,16.899099999995087],[-89.622575024180051,20.971900729989397,16.88310000000638],[-89.622560009776805,20.971898336569293,16.975900000004913],[-89.622560911841873,20.971893347925075,16.88310000000638],[-89.622567089093749,20.971859158135494,16.905100000003586],[-89.622568286548102,20.971852533476248,16.924400000003516],[-89.622562463366947,20.971851605618969,16.916100000002189],[-89.622449287616391,20.971833563898365,16.755600000004051],[-89.622458398429529,20.971792641463065,16.81590000000142],[-89.622459640141855,20.971787065245195,16.855500000005122],[-89.622455213506697,20.971786347915742,16.859800000005635],[-89.622341068757038,20.971767859676135,16.971199999999953],[-89.622336569842588,20.971767131719155,16.975600000005215],[-89.622292172457293,20.971759940540611,15.18300000000454],[-89.622269092213941,20.971899325399026,15.591300000000047],[-89.622245030180693,20.972044640906773,16.974000000001979],[-89.62224402839486,20.972050691042487,17.353799999997136],[-89.622246433126122,20.972053590117486,17.353799999997136],[-89.622262919687515,20.972073469147322,17.353799999997136]]]},"properties":{"OBJECTID":6,"CATEGORIA":"USOS_DE_PREDIO","CODIGO":3003,"ELEMENTO":"Escuela","Z":15.1829996,"Shape_Length":145.88629067238517,"Shape_Area":1070.6433562452949}},{"type":"Feature","id":7,"geometry":{"type":"Polygon","coordinates":[[[-89.624197161924428,20.971930345793762,14.22729999999865],[-89.624183182246753,20.971999856466191,15.766199999998207],[-89.624466875070027,20.972053804439835,15.307600000000093],[-89.624498888593735,20.972059892065559,15.255900000003749],[-89.624508442727262,20.972061331163196,15.27270000000135],[-89.624510049387681,20.97206157365137,15.275500000003376],[-89.624543145256965,20.972066558451679,15.333599999998114],[-89.624590304886212,20.972073662217504,15.416400000001886],[-89.624671170490501,20.972085843365491,15.558399999994435],[-89.624671600343888,20.972085908067029,15.559200000003329],[-89.624677296401586,20.97208676648323,15.569199999998091],[-89.624725261772156,20.972093991416529,15.6533999999956],[-89.624788439736022,20.972103507186496,15.764299999995274],[-89.62482778586201,20.972109433892424,15.833400000003166],[-89.624878597349749,20.972117088015963,15.350800000000163],[-89.624915270292959,20.971938143372071,15.298099999999977],[-89.624827250958205,20.971925681645661,15.533200000005309],[-89.624729890080658,20.971911898493786,15.533200000005309],[-89.624701544464983,20.971907885130161,15.533200000005309],[-89.624669645888787,20.971903368547768,15.533200000005309],[-89.624661924528283,20.971902238883754,15.831300000005285],[-89.624624555170541,20.971896772826472,15.57060000000638],[-89.624575241405282,20.971889558705538,15.226500000004307],[-89.62456080192807,20.971887446423072,15.125799999994342],[-89.624516554474184,20.971880974009366,14.81710000000021],[-89.624499014546444,20.971878564605841,14.817399999999907],[-89.624453265980321,20.971872278723609,14.818199999994249],[-89.624376235975902,20.971861696006229,13.419800000003306],[-89.624275556965102,20.97184786259394,14.087499999994179],[-89.624216541933563,20.971839754138443,14.478900000001886],[-89.624199090028,20.971920758428062,14.256299999993644],[-89.624197161924428,20.971930345793762,14.22729999999865]]]},"properties":{"OBJECTID":7,"CATEGORIA":"USOS_DE_PREDIO","CODIGO":3003,"ELEMENTO":"Escuela","Z":13.4197998,"Shape_Length":185.29475587507153,"Shape_Area":1436.4118537744832}},{"type":"Feature","id":8,"geometry":{"type":"Polygon","coordinates":[[[-89.624216541933563,20.971839754138443,14.478900000001886],[-89.624234066747277,20.971758411958614,14.927299999995739],[-89.624236042477122,20.971749240076623,14.977899999998044],[-89.624255102872766,20.971660769643993,15.465500000005704],[-89.624258176745414,20.971646501361086,15.544099999999162],[-89.624206467136034,20.971636673246433,15.21929999999702],[-89.624164957670999,20.971628783494136,14.958599999998114],[-89.624095680406853,20.971615616384433,14.523499999995693],[-89.624087091350077,20.971652647634578,14.41479999999865],[-89.624079357826616,20.971685991972695,14.316900000005262],[-89.624070930567157,20.971722325528759,14.2103000000061],[-89.624010105400032,20.971708870167902,14.129799999995157],[-89.62397479647926,20.9717010599967,14.169200000003912],[-89.623881824682968,20.971680494160516,14.272899999996298],[-89.623863387451053,20.971765359788286,13.867899999997462],[-89.623862714809064,20.971768456121108,13.853099999992992],[-89.623861624873186,20.971773472942637,13.959400000007008],[-89.623852206921867,20.971816821617011,13.796300000001793],[-89.62384521440552,20.971849006097766,13.675099999993108],[-89.623842661709816,20.971860754595436,13.630900000003749],[-89.623740852203483,20.97183502686417,13.626499999998487],[-89.623738558598404,20.971834364287119,13.642399999996996],[-89.62369350403246,20.971821359265679,13.953899999993155],[-89.62364417821442,20.971807121716399,14.294999999998254],[-89.623568909837218,20.971785394589119,14.815499999996973],[-89.62356768093241,20.971785040638292,14.823999999993248],[-89.623562318638378,20.971783972995961,14.827699999994365],[-89.623471954651251,20.971765990472466,14.729300000006333],[-89.62338879241473,20.972169286436941,15.620100000000093],[-89.623385466444745,20.97218541758102,15.893599999995786],[-89.623390913502377,20.972192660378759,15.899999999994179],[-89.623409499418599,20.972217372451304,15.921900000001187],[-89.623411910492905,20.972220578381755,15.941800000000512],[-89.623419736904722,20.972222328553489,15.938399999999092],[-89.623652975769588,20.972274494511733,15.837199999994482],[-89.623656822400321,20.972275355268806,15.835500000001048],[-89.623659129985001,20.972275882202233,14.853400000007241],[-89.623673004052208,20.972227282479505,12.670499999992899],[-89.623676433624652,20.972215269480309,12.614400000005844],[-89.623686391700076,20.972180388526393,12.451499999995576],[-89.623699379811043,20.97213489112978,12.239000000001397],[-89.623704154558567,20.972118165252144,15.502200000002631],[-89.623713672545833,20.972120561981747,15.520799999998417],[-89.623729151597416,20.972124460426357,15.579299999997602],[-89.623769620932663,20.972134652335804,15.732199999998556],[-89.623773297803552,20.972118911234261,15.416500000006636],[-89.623794641614808,20.972027530046798,13.583899999997811],[-89.623799878184585,20.972028608646241,13.61250000000291],[-89.623929011718545,20.972055216393859,14.318199999994249],[-89.623929538589266,20.97205241483276,14.445999999996275],[-89.623957868115127,20.972058422986805,14.447199999995064],[-89.624013706062783,20.972070263233103,14.449500000002445],[-89.624048810675248,20.972077708169461,14.451000000000931],[-89.624050524727025,20.972068633314557,14.427400000000489],[-89.624053023890781,20.972053930584352,14.390499999994063],[-89.624078057949447,20.97190663628475,14.021099999998114],[-89.62413746089878,20.971918461294916,14.12390000000596],[-89.624197161924428,20.971930345793762,14.22729999999865],[-89.624199090028,20.971920758428062,14.256299999993644],[-89.624216541933563,20.971839754138443,14.478900000001886]]]},"properties":{"OBJECTID":8,"CATEGORIA":"USOS_DE_PREDIO","CODIGO":3003,"ELEMENTO":"Escuela","Z":12.2390003,"Shape_Length":317.05113682037069,"Shape_Area":3249.834621373453}},{"type":"Feature","id":21,"geometry":{"type":"Polygon","coordinates":[[[-89.61628794508438,20.969788378566047,12.820200000001932],[-89.616420075968577,20.969803669527597,13.380699999994249],[-89.616625818240607,20.969825561710554,11.306700000001001],[-89.616976640798256,20.969864029520672,10.891799999997602],[-89.61701556298938,20.969839584215389,10.546199999997043],[-89.617110845559424,20.969533005150701,9.9238999999943189],[-89.617124444354459,20.9694749407922,11.814799999992829],[-89.616954418233945,20.969448546819017,15.646099999998114],[-89.616919116041885,20.96944306618602,15.669800000003306],[-89.616776194545182,20.969420879168283,15.851599999994505],[-89.616774957151407,20.969427929671184,15.877900000006775],[-89.616668002957695,20.969412764123959,16.039999999993597],[-89.616638102496836,20.969408524046941,15.993100000006962],[-89.616621189597311,20.969403903883517,15.522400000001653],[-89.616547745826054,20.969383840084589,13.848499999992782],[-89.616544498236109,20.969399104109975,14.129899999999907],[-89.616535464436382,20.969441559149359,13.840800000005402],[-89.616533650027534,20.969450085666931,13.782699999996112],[-89.616527829166444,20.969477439728422,13.596399999994901],[-89.616478146654913,20.969469032519566,13.596399999994901],[-89.61643365192802,20.96946150354627,15.100099999996019],[-89.616347613534188,20.969443520103123,15.795800000007148],[-89.61628794508438,20.969788378566047,12.820200000001932]]]},"properties":{"OBJECTID":21,"CATEGORIA":"USOS_DE_PREDIO","CODIGO":3003,"ELEMENTO":"Escuela","Z":9.92389965,"Shape_Length":249.09067114462363,"Shape_Area":3417.670227941187}},{"type":"Feature","id":22,"geometry":{"type":"Polygon","coordinates":[[[-89.615348462333984,20.967946030737405,12.725999999995111],[-89.615290103126739,20.968275161833372,15.949399999997695],[-89.61532736452547,20.96828111294165,16.034499999994296],[-89.61544954346769,20.968298349766407,15.743499999996857],[-89.615448347992228,20.968305823967295,15.738800000006449],[-89.615721431405106,20.968360214009802,11.139599999994971],[-89.616008732032867,20.968417435128384,11.035900000002584],[-89.616055439185871,20.968186416425969,13.32390000000305],[-89.616061446872223,20.968156703935339,15.101599999994505],[-89.616065148051135,20.968138393912461,16.197000000000116],[-89.616081372626908,20.968058147466657,20.997900000002119],[-89.616070965354169,20.968056496153459,20.978700000006938],[-89.616032370310862,20.968051292491754,21.266699999992852],[-89.616031764250963,20.96805424693849,21.50789999999688],[-89.615975720272289,20.968045647412414,21.626300000003539],[-89.615791783202226,20.968015461539167,21.569699999992736],[-89.6157511884022,20.968008799698218,21.557199999995646],[-89.615750538798949,20.968012290210943,21.520699999993667],[-89.615654004102851,20.967996324698515,21.075200000006589],[-89.615642747637764,20.967994096827898,20.947000000000116],[-89.615348462333984,20.967946030737405,12.725999999995111]]]},"properties":{"OBJECTID":22,"CATEGORIA":"USOS_DE_PREDIO","CODIGO":3003,"ELEMENTO":"Escuela","Z":11.0359001,"Shape_Length":232.6776141117048,"Shape_Area":2946.9964032350385}},{"type":"Feature","id":23,"geometry":{"type":"Polygon","coordinates":[[[-89.615348462333984,20.967946030737405,12.725999999995111],[-89.615354057448641,20.967909615415543,12.725999999995111],[-89.615142754875563,20.967875940461997,15.48859999999695],[-89.61492127134855,20.967840136373241,14.866299999994226],[-89.614900812379247,20.967924002337888,13.235700000004726],[-89.614811748158942,20.968289099882735,10.835000000006403],[-89.614742854867842,20.968570416228264,11.457200000004377],[-89.61474237821939,20.968574529635376,11.24403333333612],[-89.614742554193626,20.968578666825834,11.030866666667862],[-89.614743378413777,20.968582724900866,10.817699999999604],[-89.614744830380104,20.968586602929435,10.604533333331347],[-89.614746873979826,20.968590204458554,10.391366666663089],[-89.614749458385234,20.968593439912233,10.178199999994831],[-89.614769382839228,20.968611324967313,10.454700000002049],[-89.614956271374353,20.968637466001834,10.52390000000014],[-89.61545282464165,20.968706920886351,10.575700000001234],[-89.615744822132584,20.968749373475767,10.471999999994296],[-89.615914761996834,20.968770532567682,10.057199999995646],[-89.615950203836718,20.968747103413701,10.575700000001234],[-89.615976297399897,20.968629957982603,10.886799999992945],[-89.616023066400203,20.968419992196544,11.751000000003842],[-89.616008732032867,20.968417435128384,11.035900000002584],[-89.615721431405106,20.968360214009802,11.139599999994971],[-89.615448347992228,20.968305823967295,15.738800000006449],[-89.61544954346769,20.968298349766407,15.743499999996857],[-89.61532736452547,20.96828111294165,16.034499999994296],[-89.615290103126739,20.968275161833372,15.949399999997695],[-89.615348462333984,20.967946030737405,12.725999999995111]]]},"properties":{"OBJECTID":23,"CATEGORIA":"USOS_DE_PREDIO","CODIGO":3003,"ELEMENTO":"Escuela","Z":10.0572004,"Shape_Length":416.06383669187028,"Shape_Area":7456.4184048895395}}]}