{"hasZ":true,"type":"FeatureCollection","features":[{"type":"Feature","id":1,"geometry":{"type":"Polygon","coordinates":[[[-89.626246768499684,20.963311790176849,15.319699999992736],[-89.626243535409429,20.963334590227635,15.288799999994808],[-89.626241960378707,20.963345395532574,15.270300000003772],[-89.626235383174276,20.963390527859307,15.192899999994552],[-89.626228022247503,20.963441032534188,15.106299999999464],[-89.626227485822454,20.963444714531839,15.881399999998393],[-89.626275929030513,20.963449960067297,16.11699999999837],[-89.626330335327538,20.96345585220509,16.381599999993341],[-89.626367610301969,20.963459888499948,16.562900000004447],[-89.626389931370113,20.963462305352124,16.67149999999674],[-89.626409470070882,20.963464795790166,16.588000000003376],[-89.626430486524384,20.963467472908395,16.498200000001816],[-89.626466862665211,20.963472108088936,16.342600000003586],[-89.626469701658806,20.963472469706488,16.330499999996391],[-89.62647399670513,20.963444215370927,15.944300000002841],[-89.626477986587304,20.963417970084073,15.819300000002841],[-89.626483355798229,20.963382647869746,15.651100000002771],[-89.626486221502162,20.96336379896989,15.561300000001211],[-89.626490202781625,20.963337611598433,15.436600000000908],[-89.626491766651228,20.963327323802396,15.387600000001839],[-89.626494394532841,20.963307956716928,15.387600000001839],[-89.626494785423148,20.96330507779745,15.387600000001839],[-89.626504998466544,20.963229835989946,15.387600000001839],[-89.626517973028527,20.96313423911575,15.426600000006147],[-89.626436754208669,20.963128080506536,15.575800000005984],[-89.626335103877182,20.963120372407104,15.738100000002305],[-89.626274566815184,20.963115781883797,15.751600000003236],[-89.626246768499684,20.963311790176849,15.319699999992736]]]},"properties":{"OBJECTID":1,"CATEGORIA":"USOS_DE_PREDIO","CODIGO":3007,"ELEMENTO":"Gasolinera","Z":15.1063004,"Shape_Length":125.36801275889503,"Shape_Area":946.9370676331198}},{"type":"Feature","id":2,"geometry":{"type":"Polygon","coordinates":[[[-89.626379002148767,20.966198649220861,15.322100000004866],[-89.626380446021329,20.966176598137448,15.519599999999627],[-89.626387173965185,20.966172492044848,15.55909999999858],[-89.626393691464571,20.966173835233601,15.494500000000698],[-89.626395143331834,20.966174134267387,15.480100000000675],[-89.626457601556908,20.966186885739731,15.12390000000596],[-89.626466143662213,20.966188629277269,15.360400000005029],[-89.626474084445888,20.966154312925028,15.478099999992992],[-89.626474139877274,20.966154074618871,15.478900000001886],[-89.626475482264382,20.966148273828356,15.816399999996065],[-89.626489491290528,20.966151142907531,15.760699999998906],[-89.626491068451841,20.966143925525209,15.656600000002072],[-89.626504247388482,20.966083618205854,15.775200000003679],[-89.626517339152528,20.966086142990829,15.775200000003679],[-89.626533070733942,20.966014154869026,15.737800000002608],[-89.626552668635426,20.965924472522538,15.691099999996368],[-89.626554689003157,20.965915225002878,15.631099999998696],[-89.626474948660672,20.965899039189008,15.508700000005774],[-89.626470137993849,20.965898063333409,15.502999999996973],[-89.626446356629899,20.965893235837434,15.474700000006123],[-89.626351832199902,20.965874050175994,15.362399999998161],[-89.626275469107199,20.965858549833381,15.271599999992759],[-89.626261382430727,20.965855690959291,15.254899999999907],[-89.626251677522802,20.965861938471868,15.469599999996717],[-89.626192488991464,20.966168275048943,15.543399999995017],[-89.626379002148767,20.966198649220861,15.322100000004866]]]},"properties":{"OBJECTID":2,"CATEGORIA":"USOS_DE_PREDIO","CODIGO":3007,"ELEMENTO":"Gasolinera","Z":15.1239004,"Shape_Length":132.74319492566616,"Shape_Area":1043.4829573047837}},{"type":"Feature","id":3,"geometry":{"type":"Polygon","coordinates":[[[-89.624974893382912,20.969364348172206,16.933399999994435],[-89.624949841072777,20.969483135057462,17.180699999997159],[-89.624930876724761,20.96957305583998,17.367899999997462],[-89.625106779386428,20.969602954428456,18.077199999999721],[-89.625122864416241,20.969513072593429,18.026800000006915],[-89.62517611199749,20.969215522252149,17.860100000005332],[-89.625177731287479,20.969206475035854,17.854999999995925],[-89.625180310406137,20.969192064495974,17.203099999998813],[-89.625199290606702,20.969195061088865,17.113100000002305],[-89.625245128021447,20.969202297988062,16.895699999993667],[-89.625324010897799,20.969214751486668,16.521699999997509],[-89.625326423544564,20.969215132324731,16.832800000003772],[-89.625334455897772,20.969170246633993,15.365000000005239],[-89.625344908818079,20.969111834938111,15.319300000002841],[-89.625032028598227,20.969063391045122,16.603600000002189],[-89.625008180933804,20.969189009353631,17.032699999996112],[-89.624974893382912,20.969364348172206,16.933399999994435]]]},"properties":{"OBJECTID":3,"CATEGORIA":"USOS_DE_PREDIO","CODIGO":3007,"ELEMENTO":"Gasolinera","Z":15.3192997,"Shape_Length":182.1987555417719,"Shape_Area":1212.1328727386726}}]}