{"hasZ":true,"type":"FeatureCollection","features":[{"type":"Feature","id":1,"geometry":{"type":"Polygon","coordinates":[[[-89.617305777556609,20.960951525039164,10.762300000002142],[-89.617295187432447,20.960957506660606,10.945300000006682],[-89.617283384731721,20.961000616381195,11.20679999999993],[-89.617270342124456,20.961048255850269,11.495800000004238],[-89.61726860696244,20.961054593515222,11.534199999994598],[-89.617265253213617,20.961066842708892,11.608500000002095],[-89.617254680475014,20.961105459849815,11.842699999993783],[-89.617212441943352,20.961259739809734,12.778300000005402],[-89.617203071147927,20.961293966824488,12.985899999999674],[-89.617201744477356,20.961298813005026,13.015299999999115],[-89.617201633290009,20.961299217389779,13.017800000001444],[-89.617201464279489,20.961299833932639,13.021500000002561],[-89.6171933071833,20.961329627304529,13.202199999999721],[-89.617188885255942,20.961345780632865,13.300199999997858],[-89.617177093330739,20.961388849555636,13.56140000000596],[-89.617175041852263,20.961396342326246,13.606799999994109],[-89.617173878755295,20.961400591007461,13.632599999997183],[-89.617196997452211,20.961406275152736,13.606799999994109],[-89.61724710970077,20.961418596926109,13.606799999994109],[-89.617263661259656,20.961422666496379,13.503599999996368],[-89.617358867011717,20.961446075220142,12.909899999998743],[-89.617437110950078,20.961465313198577,12.422000000005937],[-89.61771750790092,20.961534255773753,10.673399999999674],[-89.617731358473932,20.961537660753521,10.317899999994552],[-89.617754648609221,20.961525201868291,10.317899999994552],[-89.617764499473537,20.961519931292813,10.317899999994552],[-89.617768385945524,20.96150598555483,10.140100000004168],[-89.617843023786023,20.96123815036405,10.426699999996345],[-89.617856072705493,20.961191325151798,10.476800000004005],[-89.617860887325278,20.961174047132602,10.495299999995041],[-89.617860975113786,20.961173734296207,10.495599999994738],[-89.617864969211752,20.96115940138127,10.510899999993853],[-89.617852817047748,20.961135900581311,10.229000000006636],[-89.61785236545667,20.961135027228401,10.229000000006636],[-89.617836712959487,20.961104756369359,10.229000000006636],[-89.617836579651311,20.961104497490169,10.229000000006636],[-89.617834510688112,20.961100496189609,10.229000000006636],[-89.617833054473394,20.961097680865123,11.873399999996764],[-89.617822397725334,20.961094591577801,11.873399999996764],[-89.617628403714363,20.961038359473669,11.873399999996764],[-89.617611180582742,20.961033366692703,11.873399999996764],[-89.617573859308607,20.96102254861179,11.873399999996764],[-89.617348946352337,20.960957353522723,11.873399999996764],[-89.617323247901595,20.960949904195807,11.873399999996764],[-89.617313598788414,20.960947107273022,11.873399999996764],[-89.617305777556609,20.960951525039164,10.762300000002142]]]},"properties":{"OBJECTID":1,"CATEGORIA":"USOS_DE_PREDIO","CODIGO":3004,"ELEMENTO":"Templo o iglesia","Z":10.1400995,"Shape_Length":222.29188089025655,"Shape_Area":3188.1390197700139}},{"type":"Feature","id":2,"geometry":{"type":"Polygon","coordinates":[[[-89.625345797509084,20.962532517353868,14.775500000003376],[-89.625335471838639,20.962581530132198,14.330700000005891],[-89.625309073080729,20.962706832928689,13.193599999998696],[-89.625287328189486,20.962810051421183,12.256999999997788],[-89.625285749113459,20.962817546906535,12.219100000002072],[-89.625350769278711,20.962824568731236,12.158899999994901],[-89.625402101090657,20.962830112209982,12.063899999993737],[-89.625899272352669,20.962883801473748,11.143500000005588],[-89.625928595768727,20.962862451978463,11.291700000001583],[-89.625960265314333,20.962614944594179,11.439799999992829],[-89.625923188120851,20.962598282281398,11.439799999992829],[-89.625539183328172,20.962552157628934,13.318599999998696],[-89.625378150006242,20.962532815161197,14.857199999998556],[-89.625346515561063,20.962529107027382,15.172600000005332],[-89.625345797509084,20.962532517353868,14.775500000003376]]]},"properties":{"OBJECTID":2,"CATEGORIA":"USOS_DE_PREDIO","CODIGO":3004,"ELEMENTO":"Templo o iglesia","Z":11.1435003,"Shape_Length":193.07132638747137,"Shape_Area":2103.0116392552959}},{"type":"Feature","id":3,"geometry":{"type":"Polygon","coordinates":[[[-89.624796926184302,20.963023300895031,15.684899999992922],[-89.624796771715395,20.963024142933392,15.69210000000021],[-89.624786160850633,20.963081935875948,16.189199999993434],[-89.624783524118399,20.963096294933731,16.312699999994948],[-89.624777796965063,20.963127490260188,16.886499999993248],[-89.624841637648856,20.963138132846673,16.672800000000279],[-89.624913439133792,20.963150101848207,16.776100000002771],[-89.62491369460426,20.96315014486094,16.776500000007218],[-89.624975714272722,20.963160483198887,16.865699999994831],[-89.625032007718204,20.963169866937239,16.946700000000419],[-89.625046706968931,20.963172317437124,16.967799999998533],[-89.625086718281537,20.963178987935674,17.331000000005588],[-89.625088755584798,20.963168614300731,17.107300000003306],[-89.625124122965303,20.962988456493239,12.484500000005937],[-89.625120438030805,20.962987759382624,16.32039999999688],[-89.625109591516747,20.962985706372585,16.332299999994575],[-89.625094342555855,20.962982820139789,16.348899999997229],[-89.625092312514894,20.96298243610272,16.35109999999986],[-89.625043278013322,20.962973154515762,16.404599999994389],[-89.625033628305644,20.962971327735914,16.415099999998347],[-89.625024029817709,20.96297804843185,16.415099999998347],[-89.624971355140943,20.962968100621186,16.48070000000007],[-89.624964846502962,20.962966870987437,16.488800000006449],[-89.624944720769363,20.962963070342798,16.513900000005378],[-89.624926359950194,20.962966433773921,16.612699999997858],[-89.624928136529391,20.96294211950444,16.513900000005378],[-89.624920797154459,20.962941645720342,16.418000000005122],[-89.62487522610094,20.962938706574274,15.822599999999511],[-89.624819247627656,20.962974273968008,15.427500000005239],[-89.624823131554351,20.963000514407589,15.518400000000838],[-89.624823467180263,20.963002780829548,15.526299999997718],[-89.624809861301543,20.963000577098899,15.343999999997322],[-89.624801350759085,20.962999198631049,17.805200000002515],[-89.624796926184302,20.963023300895031,15.684899999992922]]]},"properties":{"OBJECTID":3,"CATEGORIA":"USOS_DE_PREDIO","CODIGO":3004,"ELEMENTO":"Templo o iglesia","Z":12.4844999,"Shape_Length":110.51659200886371,"Shape_Area":685.33961176599075}},{"type":"Feature","id":4,"geometry":{"type":"Polygon","coordinates":[[[-89.626229245058298,20.964023824720154,14.646699999997509],[-89.626282894965229,20.96403378053996,14.769799999994575],[-89.626376778931771,20.964051202105683,14.98519999999553],[-89.626424010223644,20.96405996664269,15.093599999992875],[-89.626444364483575,20.964063743709218,15.140299999999115],[-89.626475889612863,20.964069593064632,15.212700000003679],[-89.626502048218086,20.964074447134639,14.024000000004889],[-89.626532099403164,20.963916951610621,13.667499999995925],[-89.626560150726519,20.963769933882556,14.260899999993853],[-89.626541616954199,20.963747834154507,16.222999999998137],[-89.626294764210442,20.963729180083988,15.768299999996088],[-89.626213077662428,20.963723006937755,15.623500000001513],[-89.626208985129082,20.963770557640412,15.167600000000675],[-89.626208633449338,20.963774635853486,15.127500000002328],[-89.62620237942906,20.963847289530261,14.41370000000461],[-89.626198297036254,20.96389470555059,13.947799999994459],[-89.626197804079808,20.963900435462772,13.891499999997905],[-89.626186685441553,20.964029594550507,14.605999999999767],[-89.62620921731839,20.96403152875186,14.605999999999767],[-89.626211529241587,20.964020537836507,14.605999999999767],[-89.626229245058298,20.964023824720154,14.646699999997509]]]},"properties":{"OBJECTID":4,"CATEGORIA":"USOS_DE_PREDIO","CODIGO":3004,"ELEMENTO":"Templo o iglesia","Z":13.6674995,"Shape_Length":140.16172439717522,"Shape_Area":1206.5855120785668}},{"type":"Feature","id":5,"geometry":{"type":"Polygon","coordinates":[[[-89.631349573777712,20.965955481575442,11.633700000005774],[-89.63136744786776,20.965954725171329,11.518400000000838],[-89.631371286060727,20.965954562960427,11.493600000001607],[-89.631501815203478,20.965949038238193,11.625199999994948],[-89.631505590004082,20.965948878809225,11.664600000003702],[-89.631532226798598,20.965947751385244,11.942899999994552],[-89.631568800999958,20.96594620320581,12.32499999999709],[-89.631632670908601,20.965943500246137,12.992299999998068],[-89.63163354586915,20.965937036735287,16.034499999994296],[-89.631633645499932,20.965936303883829,16.379400000005262],[-89.631636300190294,20.965916694399901,16.532999999995809],[-89.631636819333707,20.965912856470254,16.563099999999395],[-89.631640686110288,20.965903621926806,16.115799999999581],[-89.631656760220608,20.965865228905074,14.256200000003446],[-89.631671396906697,20.965830271781535,12.563099999999395],[-89.631655200622717,20.965831274057102,12.455400000006193],[-89.631590603672635,20.965835271208555,12.025699999998324],[-89.631543128624784,20.965838209340035,11.709900000001653],[-89.631515790427969,20.965839901048543,11.528000000005704],[-89.631505972605595,20.965840508645609,11.462700000003679],[-89.631488204376183,20.965841216479369,11.554099999993923],[-89.631295700832197,20.965848887491116,12.544899999993504],[-89.631294184944508,20.965725624249181,12.531099999992875],[-89.631294051677216,20.965721361220524,12.536099999997532],[-89.631289231408743,20.965566872311157,12.717199999999139],[-89.631279879603838,20.965413129628111,13.926900000005844],[-89.631163207493586,20.965405020084162,12.830199999996694],[-89.631092757886407,20.965400124014522,12.168000000005122],[-89.630974427413321,20.965387880497246,12.19210000000021],[-89.630945842901426,20.965384922690397,12.197899999999208],[-89.630497874894559,20.965338571755748,12.289000000004307],[-89.630475180820113,20.965336223531342,12.293600000004517],[-89.630450614745115,20.965333681203006,12.298599999994622],[-89.630437453979511,20.965332319761508,13.270999999993364],[-89.630427301599838,20.965414484688406,13.849000000001979],[-89.630393064152855,20.965691583243878,14.163199999995413],[-89.630366938301052,20.965856688241846,13.992400000002817],[-89.630353406199603,20.965942201676249,13.903999999994994],[-89.630352968988916,20.965944077337731,13.931200000006356],[-89.630391770402667,20.965950934012263,13.826199999995879],[-89.630406777228401,20.96595358511723,13.759399999995367],[-89.630489006297807,20.965968115407524,13.393400000000838],[-89.630514753392347,20.965972665491968,13.278800000000047],[-89.630526780837926,20.965974790180695,13.225200000000768],[-89.630645489557224,20.965995766866701,15.076499999995576],[-89.630652503069385,20.96599529832498,15.039499999998952],[-89.630674645824172,20.965993820603323,14.922900000005029],[-89.63078879671167,20.965986201011276,15.035399999993388],[-89.630806386664588,20.965985026517227,15.286699999996927],[-89.63080826149924,20.965977584219917,12.159799999993993],[-89.631017635741614,20.965965195795519,12.576400000005378],[-89.631038294225036,20.965964643805567,12.576400000005378],[-89.631296212341354,20.965955244936698,11.967499999998836],[-89.631333717715279,20.965956152636018,11.743100000006962],[-89.631349573777712,20.965955481575442,11.633700000005774]]]},"properties":{"OBJECTID":5,"CATEGORIA":"USOS_DE_PREDIO","CODIGO":3004,"ELEMENTO":"Templo o iglesia","Z":11.4626999,"Shape_Length":391.64697803081236,"Shape_Area":6606.7626968472714}},{"type":"Feature","id":6,"geometry":{"type":"Polygon","coordinates":[[[-89.630806386664588,20.965985026517227,15.286699999996927],[-89.630799588354023,20.966012012211994,15.245299999995041],[-89.630780135373456,20.966089233179883,15.126999999993131],[-89.630768422598521,20.966135728726481,15.055699999997159],[-89.630734569514047,20.96627011515006,14.849700000006123],[-89.630719080101684,20.966331604048129,14.755499999999302],[-89.630717730156007,20.966336963477957,14.747300000002724],[-89.6307077374193,20.966334884127345,14.595000000001164],[-89.630667003367321,20.966326407863235,14.08980000000156],[-89.630589793629284,20.966310342059952,13.132100000002538],[-89.630570445853763,20.966306316146433,14.127800000002026],[-89.630569962578576,20.966309074609267,14.136199999993551],[-89.630558586885471,20.966374064448843,14.333700000002864],[-89.630555365039058,20.966392471957327,14.389599999994971],[-89.630546519993459,20.966391106187952,14.261700000002747],[-89.630437193961853,20.966374222586431,14.408800000004703],[-89.630381373872382,20.966365601801893,14.483900000006543],[-89.630330064505316,20.966357677875827,14.552899999995134],[-89.630259002467781,20.966346703902868,13.188200000004144],[-89.630244588419288,20.966408465085717,12.237299999993411],[-89.630242522876372,20.966417315167199,12.389599999994971],[-89.63021163816623,20.966549650457615,14.667400000005728],[-89.630259316395524,20.966559239367335,14.81140000000596],[-89.630369667865295,20.966581432280606,15.144700000004377],[-89.630696497353256,20.966633320452981,15.06140000000596],[-89.630720361764148,20.966637170061677,14.988299999997253],[-89.631088659422417,20.966696569848416,13.860899999999674],[-89.631150141837708,20.966706486102893,13.67269999999553],[-89.631204706019474,20.966715286725616,13.505699999994249],[-89.631229331948902,20.966719258120797,13.430300000007264],[-89.631283692741363,20.966728025744604,13.263900000005378],[-89.631335869228636,20.966736440668342,13.104200000001583],[-89.631385463314942,20.966744439523513,12.952399999994668],[-89.631453099582998,20.966755347644785,13.349000000001979],[-89.631458452008459,20.966717870523585,14.282300000006217],[-89.631459219173493,20.966712496618204,14.243000000002212],[-89.631471784681423,20.966624516135536,13.600300000005518],[-89.631478562741748,20.966577055794684,13.253599999996368],[-89.631481579338129,20.966555935662072,13.099300000001676],[-89.631485196931621,20.966530601650728,12.914199999999255],[-89.631491810568775,20.966484291378087,12.575899999996182],[-89.631501406561966,20.966417101660916,12.085099999996601],[-89.63151166186347,20.966417596911455,11.476500000004307],[-89.631546932964866,20.966419299270328,12.423899999994319],[-89.631598682787313,20.966421797985443,13.949800000002142],[-89.6316316505023,20.966424251872624,13.907399999996414],[-89.63167022175962,20.966427122981532,13.587599999998929],[-89.631681926538064,20.966329683039024,13.681400000001304],[-89.631701227955588,20.966169010777488,14.05909999999858],[-89.631709972262001,20.966096224777321,14.112200000003213],[-89.631678738846915,20.966093616804766,13.610799999994924],[-89.631657800745202,20.966091869108151,13.432799999995041],[-89.631523843418535,20.966080683610677,12.294099999999162],[-89.631509545511349,20.96607948969864,12.172600000005332],[-89.63143372804484,20.96607381990864,11.8125],[-89.631366842387791,20.966068817468297,11.494800000000396],[-89.631338862110383,20.966066724370634,11.361900000003516],[-89.631344260195164,20.966010661275838,11.705199999996694],[-89.631345764902491,20.965995036700424,11.680999999996857],[-89.631348496944881,20.965966666524064,11.637100000007194],[-89.631349239536775,20.965958955506881,11.625199999994948],[-89.631349573777712,20.965955481575442,11.633700000005774],[-89.631333717715279,20.965956152636018,11.743100000006962],[-89.631296212341354,20.965955244936698,11.967499999998836],[-89.631038294225036,20.965964643805567,12.576400000005378],[-89.631017635741614,20.965965195795519,12.576400000005378],[-89.63080826149924,20.965977584219917,12.159799999993993],[-89.630806386664588,20.965985026517227,15.286699999996927]]]},"properties":{"OBJECTID":6,"CATEGORIA":"USOS_DE_PREDIO","CODIGO":3004,"ELEMENTO":"Templo o iglesia","Z":11.3619003,"Shape_Length":451.53075803722948,"Shape_Area":8239.9332610769798}},{"type":"Feature","id":7,"geometry":{"type":"Polygon","coordinates":[[[-89.621967812982618,20.966872338076108,19.873099999997066],[-89.621958310090349,20.966920208613818,19.873099999997066],[-89.621947539402157,20.966974474661505,19.873099999997066],[-89.6219382962542,20.9670235149189,19.459000000002561],[-89.621934444504149,20.967043950849035,19.286399999997229],[-89.621925196986311,20.967093016453514,18.872099999993225],[-89.621917210170878,20.96713539051882,18.514299999995274],[-89.621900004874007,20.967226677157722,17.743400000006659],[-89.621895637556634,20.96724984856273,17.54769999999553],[-89.621886034540594,20.967300797586727,17.117499999993015],[-89.621976222877564,20.967315157135324,16.111199999999371],[-89.622045657249373,20.967326212005251,15.33640000000014],[-89.622186484700762,20.967348634593442,13.764999999999418],[-89.622310577701711,20.967368392111286,12.380300000004354],[-89.622357265720439,20.967375825320342,11.859299999996438],[-89.622452046192933,20.967390915655784,10.801699999996345],[-89.622557588765332,20.967407720005394,9.6239999999961583],[-89.622646799783126,20.967421923591871,8.6285999999963678],[-89.622768174784639,20.96744252344644,9.2087000000028638],[-89.622979455042426,20.967478382204664,10.218500000002678],[-89.622980500947122,20.967472934498179,11.53979999999865],[-89.623084332642364,20.966931903425895,18.734899999995832],[-89.622974459668157,20.966913645639867,21.860599999999977],[-89.622917293882566,20.966904146562932,21.860599999999977],[-89.622296957805943,20.966801063224391,21.860599999999977],[-89.621992019331429,20.96675038909131,20.535600000002887],[-89.621967812982618,20.966872338076108,19.873099999997066]]]},"properties":{"OBJECTID":7,"CATEGORIA":"USOS_DE_PREDIO","CODIGO":3004,"ELEMENTO":"Templo o iglesia","Z":8.62860012,"Shape_Length":354.34607463613929,"Shape_Area":7115.3167210978509}},{"type":"Feature","id":8,"geometry":{"type":"Polygon","coordinates":[[[-89.626022844948366,20.967017536036973,16.105899999995017],[-89.626022830739927,20.967017603067479,16.105400000000373],[-89.626000457102805,20.967120142434037,15.324800000002142],[-89.62599023943082,20.967166969562765,14.968299999993178],[-89.625975110919484,20.967236302088338,14.440499999996973],[-89.625957808226815,20.967315599564163,13.836899999994785],[-89.625950215063938,20.967350399895007,13.566600000005565],[-89.626048921272314,20.967365100841779,14.50789999999688],[-89.626174024339548,20.967383733918322,15.714600000006612],[-89.626228978718544,20.967391918893075,16.244699999995646],[-89.626227943737248,20.967398644886934,16.244699999995646],[-89.626227042580368,20.967404502977214,16.244699999995646],[-89.626319547956513,20.967417060271298,17.360000000000582],[-89.626365254341181,20.967423265161599,17.911099999997532],[-89.626367347110815,20.967423549799001,17.936300000001211],[-89.62650317901209,20.967441989222561,19.573999999993248],[-89.626546835029316,20.967447915093175,20.100300000005518],[-89.626573025853318,20.967323954320882,19.321200000005774],[-89.626582235833808,20.967280364105886,19.107600000003004],[-89.626591404099472,20.967236972259684,18.894899999999325],[-89.626618650464181,20.967108015950721,18.262900000001537],[-89.626628155189564,20.967063031692536,18.042400000005728],[-89.626641225227601,20.967001169518277,17.462100000004284],[-89.626459202257607,20.966972631531117,17.389299999995274],[-89.626458008980407,20.966972444077452,17.389699999999721],[-89.626444224680256,20.966970282989667,17.394700000004377],[-89.626102771948993,20.966916746695489,17.518200000005891],[-89.626081856951544,20.966913467616077,17.525800000003073],[-89.626046753801518,20.966907964118487,17.538499999995111],[-89.626022844948366,20.967017536036973,16.105899999995017]]]},"properties":{"OBJECTID":8,"CATEGORIA":"USOS_DE_PREDIO","CODIGO":3004,"ELEMENTO":"Templo o iglesia","Z":13.5665998,"Shape_Length":227.58606406597437,"Shape_Area":3166.4239761740282}},{"type":"Feature","id":9,"geometry":{"type":"Polygon","coordinates":[[[-89.621862914397639,20.967397849735793,21.586599999995087],[-89.621860126797202,20.967412008855803,21.419200000003912],[-89.621842768571852,20.967500152282149,20.717199999999139],[-89.621880001300156,20.967506338034926,21.400699999998324],[-89.621929215962751,20.967514515250745,21.40559999999823],[-89.621971877153001,20.967521603352818,21.409899999998743],[-89.622097372569286,20.96754245355902,21.422500000000582],[-89.622138208861529,20.967549238358291,21.426600000006147],[-89.622160357859073,20.967431629475154,20.709799999996903],[-89.621884996930277,20.967383585049468,21.260699999998906],[-89.621883361697968,20.967383299633941,21.26589999999851],[-89.621866364371982,20.967380334422025,21.793600000004517],[-89.621862914397639,20.967397849735793,21.586599999995087]]]},"properties":{"OBJECTID":9,"CATEGORIA":"USOS_DE_PREDIO","CODIGO":3004,"ELEMENTO":"Templo o iglesia","Z":20.7098007,"Shape_Length":89.057331226761931,"Shape_Area":416.4792724772571}},{"type":"Feature","id":10,"geometry":{"type":"Polygon","coordinates":[[[-89.628885939812989,20.968514030748242,15.88980000000447],[-89.628837462497017,20.968839371009857,14.742800000007264],[-89.628837427154835,20.968839603589302,14.74199999999837],[-89.62882177502081,20.968944649584916,13.686100000006263],[-89.628817428974159,20.968973811194434,13.462100000004284],[-89.62883119485042,20.968976720821576,13.56260000000475],[-89.628882677948241,20.968987602005907,13.93859999999404],[-89.628886661628599,20.968988443380248,13.967699999993783],[-89.628967760485807,20.969005584711937,14.560100000002421],[-89.628971537695861,20.969006382322327,14.587700000003679],[-89.628979692262163,20.969008106417188,14.647299999996903],[-89.628994815628147,20.969011302952943,14.480400000000373],[-89.629001822843463,20.968970136524799,14.54769999999553],[-89.629041071521542,20.968739552573801,14.924799999993411],[-89.629041187037274,20.968738628072096,14.928199999994831],[-89.629052679049465,20.968646344947377,15.270499999998719],[-89.629052902332077,20.968644547526374,15.27719999999681],[-89.629055996337001,20.968619700125039,15.369300000005751],[-89.629038124299285,20.968617736881452,15.484899999995832],[-89.629036153810759,20.968617519911557,15.497700000007171],[-89.629037152584033,20.968609500678117,15.532300000006217],[-89.629038919162099,20.968595314825048,15.593399999997928],[-89.629040657061807,20.968581357837174,15.653500000000349],[-89.62904129169678,20.968576260448692,15.675499999997555],[-89.629046109494197,20.968570935080024,15.635999999998603],[-89.629047721798557,20.96855798581214,15.646200000002864],[-89.629049264226694,20.96854560281059,15.655899999997928],[-89.629057089911683,20.968482760622859,16.758799999995972],[-89.629032726464672,20.968479577590688,17.252900000006775],[-89.628988696322864,20.96847382429511,17.193700000003446],[-89.628893779241636,20.96846142132053,16.735799999994924],[-89.628885939812989,20.968514030748242,15.88980000000447]]]},"properties":{"OBJECTID":10,"CATEGORIA":"USOS_DE_PREDIO","CODIGO":3004,"ELEMENTO":"Templo o iglesia","Z":13.4621,"Shape_Length":154.52741779733032,"Shape_Area":1085.2139871727695}},{"type":"Feature","id":11,"geometry":{"type":"Polygon","coordinates":[[[-89.622235654298663,20.968916275940153,26.427299999995739],[-89.622267053551212,20.968921411967365,26.424100000003818],[-89.622363303635325,20.968937154075554,26.414099999994505],[-89.622372133827895,20.968938598138571,26.413199999995413],[-89.622366472395782,20.968969131526919,17.143400000000838],[-89.622360501803087,20.969001338159227,17.063699999998789],[-89.622333169240747,20.969148767955968,15.978700000006938],[-89.622371563360588,20.969154830950192,15.00010000000475],[-89.622619495215247,20.9691939817918,11.005900000003749],[-89.62264431085795,20.9691979000308,10.606100000004517],[-89.622664986242341,20.969092424758319,8.889500000004773],[-89.622691822512323,20.968955517279465,8.8778000000020256],[-89.622704249350406,20.968892116757825,8.8723999999929219],[-89.6227072821532,20.968876644709106,8.8711000000039348],[-89.62272803783577,20.968770761910704,8.8619999999937136],[-89.622739346409375,20.968713071134534,8.8570000000036089],[-89.622716592425704,20.968709136507616,8.7681000000011409],[-89.622713984284431,20.968708679189518,7.3586000000068452],[-89.622674815141309,20.968701823748503,9.1273999999975786],[-89.622670238133765,20.9687010220571,9.334099999992759],[-89.62262973840933,20.968693933388366,11.163100000005215],[-89.622596188536093,20.968688060397305,12.678199999994831],[-89.622572404934971,20.968683897830548,13.752200000002631],[-89.62256643083154,20.968682852205379,14.021999999997206],[-89.622522397357528,20.96867514438274,16.010500000003958],[-89.622479208512317,20.968667584253748,17.960900000005495],[-89.622477669678688,20.96866731541844,18.030400000003283],[-89.6224189498014,20.968657757998297,18.199699999997392],[-89.622283052743555,20.968635639019841,18.591499999994994],[-89.62212373199209,20.968609708386548,19.050900000002002],[-89.62212165395664,20.968621452270977,19.072599999999511],[-89.622089297887797,20.968804314461938,19.160799999997835],[-89.62207820334676,20.968867014599958,19.191099999996368],[-89.622027208503056,20.969105949595306,19.507199999992736],[-89.622026762421015,20.969108039359316,19.69560000000638],[-89.622188935869048,20.969133648040899,19.737599999993108],[-89.622190450178365,20.969126231211799,19.732099999993807],[-89.622221884537993,20.968972247623647,19.618199999997159],[-89.622232546566948,20.968920020088714,19.579599999997299],[-89.622233386988725,20.96891590545971,26.427500000005239],[-89.622235654298663,20.968916275940153,26.427299999995739]]]},"properties":{"OBJECTID":11,"CATEGORIA":"USOS_DE_PREDIO","CODIGO":3004,"ELEMENTO":"Templo o iglesia","Z":7.35860014,"Shape_Length":288.58438899677617,"Shape_Area":3229.0760263240722}},{"type":"Feature","id":12,"geometry":{"type":"Polygon","coordinates":[[[-89.629114770105062,20.970283413645461,18.74189999999362],[-89.629108349947899,20.970315554193522,18.536500000001979],[-89.62910783025869,20.970318156119916,18.519899999999325],[-89.629105051531766,20.970332069584678,17.84440000000177],[-89.629101213926418,20.970351281100182,15.107300000003306],[-89.629100829455481,20.970353205603274,18.100500000000466],[-89.629111367517993,20.970354737603248,18.080799999996088],[-89.629214344730997,20.970369710951793,17.888699999995879],[-89.629233495385066,20.970372494979152,17.853000000002794],[-89.629259656003242,20.970376298462437,17.804199999998673],[-89.629271346326263,20.970317770051825,17.626399999993737],[-89.629279111646696,20.970278896003901,12.482999999992899],[-89.62929886848255,20.970281989375589,12.501900000002934],[-89.629317925508857,20.970284971662156,12.520199999999022],[-89.629506903586773,20.970314552643895,12.701100000005681],[-89.629555615630522,20.970322177321997,12.747700000007171],[-89.62964430015704,20.970336059210727,12.832599999994272],[-89.629666102366144,20.970339472171275,12.853499999997439],[-89.6297661733159,20.970355135591994,11.933199999999488],[-89.629769422587799,20.970355644292699,11.903300000005402],[-89.629789388587895,20.970358769587477,11.719700000001467],[-89.629793875285827,20.970333480854148,11.68300000000454],[-89.629795670705079,20.970323363724219,11.66830000000482],[-89.62983303342611,20.970112782685739,11.362899999992806],[-89.62983754373866,20.970087360867648,11.326000000000931],[-89.629860056038254,20.969960480805209,11.141900000002352],[-89.629840727708242,20.969934030329746,11.092499999998836],[-89.62983808442857,20.96993041367346,10.51919999999518],[-89.629825593870677,20.969928483908543,10.240200000000186],[-89.629265112833139,20.969841868991359,10.432799999995041],[-89.62925134999314,20.969839742136607,11.031700000006822],[-89.629244052736169,20.969844166816468,10.949500000002445],[-89.629215138649187,20.969861702386627,10.623600000006263],[-89.629173291909211,20.969990431057351,20.964300000006915],[-89.629172834955767,20.96999271782164,20.869900000005146],[-89.629171284760488,20.970000481029849,20.549499999993714],[-89.629152343424451,20.970095306918196,19.943700000003446],[-89.629149705213663,20.970108515792461,19.859299999996438],[-89.629146312158952,20.970125500324031,19.750799999994342],[-89.629136898561924,20.970172632050115,19.449699999997392],[-89.629133395944578,20.970190167209083,19.337700000003679],[-89.629127532590047,20.970219519269836,19.150200000003679],[-89.629124356999483,20.970235417920453,19.048599999994622],[-89.629118018181074,20.970267152733747,18.845799999995506],[-89.629114770105062,20.970283413645461,18.74189999999362]]]},"properties":{"OBJECTID":12,"CATEGORIA":"USOS_DE_PREDIO","CODIGO":3004,"ELEMENTO":"Templo o iglesia","Z":10.2402,"Shape_Length":252.44245538434882,"Shape_Area":3491.7474264259731}},{"type":"Feature","id":13,"geometry":{"type":"Polygon","coordinates":[[[-89.621736945417808,20.97088282332604,17.660499999998137],[-89.621736057223416,20.970887561662614,17.750299999999697],[-89.621731824935566,20.970910156770145,17.801999999996042],[-89.621726647247243,20.970937792649888,17.865300000004936],[-89.621724775085497,20.970947785427242,17.888200000001234],[-89.621723195753631,20.970956215361284,17.907500000001164],[-89.621708564060327,20.971034314037649,18.08640000000014],[-89.621706541519487,20.971045109063351,18.111099999994622],[-89.621696693520761,20.971097672558979,18.231499999994412],[-89.621691545757187,20.971125150880116,18.294399999998859],[-89.621740954645347,20.971133316926803,16.621199999994133],[-89.621815630019455,20.971145658889096,14.092399999994086],[-89.621820227518782,20.971146418750084,13.936700000005658],[-89.62192634308488,20.97116395658578,14.084099999992759],[-89.622047460092531,20.971183974701095,14.252399999997579],[-89.622077910216817,20.971189007056928,14.294699999998556],[-89.622260360360315,20.971219160691589,14.486000000004424],[-89.622299603170788,20.97097837333553,11.353000000002794],[-89.622300989844774,20.970969866913538,11.243400000006659],[-89.622296736727748,20.970964219099404,11.180200000002515],[-89.622286151088417,20.970950157523365,11.180200000002515],[-89.622278869969122,20.970940486236671,11.747799999997369],[-89.622253634679055,20.970936278292747,11.937300000005052],[-89.621744350624752,20.970851347605237,15.76140000000305],[-89.621742888144382,20.970851103772869,16.193700000003446],[-89.621736945417808,20.97088282332604,17.660499999998137]]]},"properties":{"OBJECTID":13,"CATEGORIA":"USOS_DE_PREDIO","CODIGO":3004,"ELEMENTO":"Templo o iglesia","Z":11.1801996,"Shape_Length":179.47607737265199,"Shape_Area":1835.0511195504607}},{"type":"Feature","id":16,"geometry":{"type":"Polygon","coordinates":[[[-89.616070965354169,20.968056496153459,20.978700000006938],[-89.616084804169233,20.967979565545523,21.427999999999884],[-89.616086627160968,20.967969432705736,21.498300000006566],[-89.616088798920686,20.967957357868521,21.582099999999627],[-89.616091129392728,20.967944405719564,21.672000000005937],[-89.616100310860858,20.967893365810887,22.360499999995227],[-89.616103060206001,20.967878081453815,22.566699999995762],[-89.616111147950434,20.967833125581485,23.173099999999977],[-89.616115109416029,20.967811104405236,23.470100000005914],[-89.616134394377184,20.967703902027559,24.916200000006938],[-89.616135222590941,20.967699297346741,24.978300000002491],[-89.616137174366585,20.967688445655696,25.124700000000303],[-89.616140899192317,20.96766773997345,25.403999999994994],[-89.616142992109801,20.967656106041105,25.560899999996764],[-89.616136011823372,20.967655070217432,25.264100000000326],[-89.616067167842388,20.967644852530995,22.336500000004889],[-89.615967408408693,20.967630046319762,18.094200000006822],[-89.615892867847492,20.967618983383154,17.24659999999858],[-89.615769804518735,20.967600718507242,15.847200000003795],[-89.615659945250471,20.967584413151798,14.597899999993388],[-89.615538366112716,20.967566369086715,13.215400000000955],[-89.615351822072768,20.967538682102802,11.094200000006822],[-89.615274566352497,20.967527414090583,12.12390000000596],[-89.615222931152331,20.96751988241067,12.812200000000303],[-89.615048383786586,20.967494424261911,15.138699999995879],[-89.614992779584981,20.967533403968517,15.138699999995879],[-89.614956454138749,20.967693930074461,14.651500000007218],[-89.614950252304368,20.967721336000245,14.568299999998999],[-89.61492127134855,20.967840136373241,14.866299999994226],[-89.615142754875563,20.967875940461997,15.48859999999695],[-89.615354057448641,20.967909615415543,12.725999999995111],[-89.615348462333984,20.967946030737405,12.725999999995111],[-89.615642747637764,20.967994096827898,20.947000000000116],[-89.615654004102851,20.967996324698515,21.075200000006589],[-89.615750538798949,20.968012290210943,21.520699999993667],[-89.6157511884022,20.968008799698218,21.557199999995646],[-89.615791783202226,20.968015461539167,21.569699999992736],[-89.615975720272289,20.968045647412414,21.626300000003539],[-89.616031764250963,20.96805424693849,21.50789999999688],[-89.616032370310862,20.968051292491754,21.266699999992852],[-89.616070965354169,20.968056496153459,20.978700000006938]]]},"properties":{"OBJECTID":16,"CATEGORIA":"USOS_DE_PREDIO","CODIGO":3004,"ELEMENTO":"Templo o iglesia","Z":11.0942001,"Shape_Length":328.91318371915474,"Shape_Area":5221.007217657896}}]}