{"hasZ":true,"type":"FeatureCollection","features":[{"type":"Feature","id":1,"geometry":{"type":"Polygon","coordinates":[[[-89.621200432733957,20.96394048457865,16.423399999999674],[-89.621225397677861,20.963945078859467,17.039000000004307],[-89.62127035560404,20.963953352565554,17.015299999999115],[-89.621318125452461,20.963962143671733,16.990200000000186],[-89.62140074634209,20.963977348755723,16.946800000005169],[-89.621492379668268,20.963994212719506,16.898600000000442],[-89.621666562559753,20.964026267330645,16.807000000000698],[-89.621672223786192,20.964001228766882,16.611699999994016],[-89.621694762715222,20.963901557366423,15.834099999992759],[-89.621700535991025,20.963874897346589,15.603600000002189],[-89.621706264838522,20.963848445668216,15.37489999999525],[-89.621709206630428,20.963834861105763,15.257500000006985],[-89.621710062396872,20.963830909660274,15.223299999997835],[-89.621736245777754,20.963709996558194,14.177999999999884],[-89.621738253631349,20.963700455832882,14.145900000003166],[-89.621811565218081,20.963352057808915,12.972899999993388],[-89.621811927420381,20.9633503945836,12.965400000000955],[-89.621815784163388,20.963332670771877,12.885399999999208],[-89.621818993129182,20.963317927338888,12.818799999993644],[-89.62182854605841,20.9632740304307,13.006200000003446],[-89.621783897122427,20.963265771061586,15.055900000006659],[-89.621781976203906,20.963265416002596,15.110899999999674],[-89.62153975989257,20.963218533262964,16.259000000005472],[-89.621545637418961,20.963189858263622,17.259000000005472],[-89.621428844730346,20.963168735269349,17.259000000005472],[-89.621424141730472,20.963191675282246,17.268800000005285],[-89.62136273440872,20.9631800116404,14.374800000005052],[-89.621352788307149,20.963226615039726,14.244800000000396],[-89.621279044122815,20.963572149421736,14.555099999997765],[-89.621247343992223,20.96372067829147,14.688500000003842],[-89.621216148603366,20.963866845635678,14.819699999992736],[-89.621204292823975,20.963922396869606,14.869600000005448],[-89.621200432733957,20.96394048457865,16.423399999999674]]]},"properties":{"OBJECTID":1,"CATEGORIA":"USOS_DE_PREDIO","CODIGO":3000,"ELEMENTO":"Mercado","Z":12.8188,"Shape_Length":275.74349209645658,"Shape_Area":4266.932432086448}},{"type":"Feature","id":2,"geometry":{"type":"Polygon","coordinates":[[[-89.621428844730346,20.963168735269349,17.259000000005472],[-89.621435976100386,20.963137438033225,14.279999999998836],[-89.621469149110141,20.962991862314421,14.082299999994575],[-89.621482705688408,20.962932374614674,14.041400000001886],[-89.621484996248924,20.962921461707634,14.026800000006915],[-89.621492975532448,20.962883448587618,13.975800000000163],[-89.621496773947868,20.962865354601814,13.951600000000326],[-89.621517505346844,20.962766591319365,13.835699999995995],[-89.621524607031347,20.962730231296572,14.128700000001118],[-89.621403078658062,20.962654803627363,13.334300000002258],[-89.621352971864994,20.962623704466601,13.006800000002841],[-89.621318701217703,20.962602433962822,12.782800000000861],[-89.621218905567503,20.962540495482394,12.130499999999302],[-89.621218630566545,20.962540324558155,12.128700000001118],[-89.621212256149022,20.962538962699291,12.173599999994622],[-89.621179658551384,20.962531999339173,12.402900000000955],[-89.621165999910176,20.96252908105394,13.330100000006496],[-89.621225859701923,20.962315908428028,12.63980000000447],[-89.621281277537989,20.962118550020815,12.000799999994342],[-89.621282371671739,20.962114652692623,11.988200000007055],[-89.621256733019635,20.962071624043705,10.877099999997881],[-89.621235097727606,20.962066077459482,10.877099999997881],[-89.620329075020365,20.961833818650042,10.877099999997881],[-89.620316452858745,20.96183058279362,10.877099999997881],[-89.620306774565549,20.961835767793549,11.321599999995669],[-89.620277823489431,20.961851278164293,12.235100000005332],[-89.62027623676866,20.961856915654359,12.333899999997811],[-89.620272617918275,20.961869768462837,12.271200000002864],[-89.620071220539231,20.962585160858065,12.385999999998603],[-89.62001656939141,20.962779289432664,12.41710000000603],[-89.620016460763722,20.962779674819153,12.417199999996228],[-89.620005038730184,20.962815134283485,13.09440000000177],[-89.620004994050717,20.96281527310834,13.097099999999045],[-89.619969039978869,20.962926886965494,15.228900000001886],[-89.619968809318337,20.962927605578642,15.242599999997765],[-89.619959551089423,20.962956345176494,15.791500000006636],[-89.61995892188915,20.962958297809564,16.029200000004494],[-89.619958893328118,20.962958313597408,16.029200000004494],[-89.619945394816924,20.963014274663273,16.000599999999395],[-89.619926817993999,20.963091289094397,15.96129999999539],[-89.619907626181629,20.963170851827638,15.920599999997648],[-89.6199064321371,20.963175802520333,15.91809999999532],[-89.619905206571246,20.963180709457532,15.903800000000047],[-89.619889108957224,20.963245165785022,15.873500000001513],[-89.619985981833651,20.963268127426023,16.528900000004796],[-89.620035388300181,20.963279837983134,16.701900000000023],[-89.620042757571937,20.963281584552877,16.727700000003097],[-89.620081132813269,20.963290680309676,16.862099999998463],[-89.620174012722046,20.963312695649758,17.18739999999525],[-89.620176857153709,20.963313369680467,17.197400000004563],[-89.620179868569423,20.96331408357759,17.20789999999397],[-89.620267736221436,20.963334910135043,17.515599999998813],[-89.620270398231497,20.963335540923726,17.524900000003981],[-89.620291644154378,20.963340577168662,17.599300000001676],[-89.620356179153077,20.963355873157724,17.825299999996787],[-89.620365002011937,20.963357963918398,17.856199999994715],[-89.620349492405452,20.963415061036539,17.856199999994715],[-89.620341794984483,20.963443400151899,17.856199999994715],[-89.620319319513655,20.963526140023767,17.856199999994715],[-89.620357072077454,20.963534801079881,14.992400000002817],[-89.620386091724043,20.963541458466196,14.936900000000605],[-89.620432625467501,20.963552134160626,14.847899999993388],[-89.620476993601599,20.963562313170932,14.763000000006286],[-89.620493645886171,20.963566133463459,14.731199999994715],[-89.620491815262312,20.963573770029836,14.714200000002165],[-89.620457246621257,20.963717973997792,14.393200000005891],[-89.620434051488715,20.963814732838685,14.177800000004936],[-89.62040391105711,20.963940464773927,14.179900000002817],[-89.620397075053418,20.963968979340819,16.063200000004144],[-89.620397191801089,20.963969004631018,16.062699999994948],[-89.620468889324982,20.963988780533104,16.330499999996391],[-89.620474006430811,20.963990191547815,16.349600000001374],[-89.620496973561259,20.963996526683935,16.435400000002119],[-89.620536019310862,20.964007295841018,16.581200000000536],[-89.620676516328928,20.964044584354905,16.016799999997602],[-89.620701579642088,20.964051236625071,15.916100000002189],[-89.620750939513783,20.964064337164658,15.717799999998533],[-89.620814909188908,20.964081314643533,15.460900000005495],[-89.620845789779807,20.964089510679056,15.336800000004587],[-89.620867951221442,20.964095392280093,19.400399999998626],[-89.62087317966521,20.964078877074314,19.219500000006519],[-89.62087845826936,20.964062206707613,19.036800000001676],[-89.620884582274513,20.964042863507846,18.824800000002142],[-89.620885008614721,20.964041515298153,18.809999999997672],[-89.620886203105485,20.964035434212704,18.551999999996042],[-89.62088933882869,20.964019461316184,18.458100000003469],[-89.620894790178184,20.963991694841479,18.294899999993504],[-89.620904806592321,20.9639406798984,17.995100000000093],[-89.620921141484885,20.96394421069412,18.005000000004657],[-89.620930008432936,20.963946126491162,18.010299999994459],[-89.620959200900415,20.963952436218467,18.027900000000955],[-89.621027123346011,20.963967115522269,18.068899999998393],[-89.621150493761135,20.963993779518837,17.634200000000419],[-89.621157682602316,20.963960151120563,17.057000000000698],[-89.621158699758837,20.96395950076062,17.057000000000698],[-89.621191132958145,20.963938773181614,17.057000000000698],[-89.621200432733957,20.96394048457865,16.423399999999674],[-89.621204292823975,20.963922396869606,14.869600000005448],[-89.621216148603366,20.963866845635678,14.819699999992736],[-89.621247343992223,20.96372067829147,14.688500000003842],[-89.621279044122815,20.963572149421736,14.555099999997765],[-89.621352788307149,20.963226615039726,14.244800000000396],[-89.62136273440872,20.9631800116404,14.374800000005052],[-89.621424141730472,20.963191675282246,17.268800000005285],[-89.621428844730346,20.963168735269349,17.259000000005472]]]},"properties":{"OBJECTID":2,"CATEGORIA":"USOS_DE_PREDIO","CODIGO":3000,"ELEMENTO":"Mercado","Z":10.8771,"Shape_Length":745.49436706704932,"Shape_Area":27008.877330486026}},{"type":"Feature","id":3,"geometry":{"type":"Polygon","coordinates":[[[-89.616061633956306,20.96209316330804,13.429999999993015],[-89.616019592819043,20.962296482706464,14.043900000004214],[-89.616007682505611,20.962358399772501,14.043900000004214],[-89.615987645967593,20.96246256109329,14.043900000004214],[-89.615941206828694,20.962703973914063,14.043900000004214],[-89.616324275762352,20.962771678085662,13.962700000003679],[-89.616360454456739,20.962778072769275,14.392099999997299],[-89.616384010635343,20.962686555248631,14.149600000004284],[-89.616394020516537,20.962647668698921,13.953699999998207],[-89.616411916317759,20.962578142465212,13.603499999997439],[-89.616427642323416,20.962517046179471,13.295800000007148],[-89.616430251466866,20.962506909392278,13.300399999992806],[-89.616450601500162,20.962427846443898,13.336599999995087],[-89.616477591470712,20.962322990553272,13.384600000004866],[-89.616487669727164,20.962283837509265,13.295800000007148],[-89.616505623080684,20.962214087380087,14.345199999996112],[-89.616507437224996,20.962207038856054,14.451300000000629],[-89.6164988253948,20.962205082781331,14.451300000000629],[-89.616504710748615,20.962182214064541,15.162400000001071],[-89.616474815979998,20.962172914995872,15.340200000006007],[-89.616383821483112,20.962144349893428,15.340200000006007],[-89.616079550176295,20.962048830288541,14.273499999995693],[-89.616071334094713,20.962046250555819,13.713399999993271],[-89.616061633956306,20.96209316330804,13.429999999993015]]]},"properties":{"OBJECTID":3,"CATEGORIA":"USOS_DE_PREDIO","CODIGO":3000,"ELEMENTO":"Mercado","Z":13.2958002,"Shape_Length":234.64308397755991,"Shape_Area":3282.9868994128915}}]}